OBJECT_NAME,OBJECT_ID,EPOCH,MEAN_MOTION,ECCENTRICITY,INCLINATION,RA_OF_ASC_NODE,ARG_OF_PERICENTER,MEAN_ANOMALY,EPHEMERIS_TYPE,CLASSIFICATION_TYPE,NORAD_CAT_ID,ELEMENT_SET_NO,REV_AT_EPOCH,BSTAR,MEAN_MOTION_DOT,MEAN_MOTION_DDOT
TDRS 13,2017-047A,2026-07-11T20:20:55.434912,1.00271492,.0014749,3.4582,3.3230,111.2237,109.0290,0,U,42915,999,3259,0,-.97E-6,0
AMAZONAS 5,2017-053A,2026-07-09T13:21:48.296736,1.00271348,.00011663,0.0333,322.5996,111.8422,352.5077,0,U,42934,999,3226,0,-.27E-5,0
INTELSAT 37E (IS-37E),2017-059A,2026-07-11T20:19:03.114912,1.00270571,.0002492,0.0138,61.5341,56.4889,98.4865,0,U,42950,999,3231,0,-.137E-5,0
QZS-4 (MICHIBIKI-4),2017-062A,2026-07-11T21:21:47.890368,1.00290892,.0747476,40.0939,343.1714,268.4974,137.4815,0,U,42965,999,3205,0,-.326E-5,0
ALCOMSAT 1,2017-078A,2026-07-11T16:51:48.102048,1.00270997,.0002137,0.0366,88.8433,26.2557,42.6707,0,U,43039,999,3154,0,-.181E-5,0
SBIRS GEO-3 (USA 282),2018-009A,2026-07-11T19:38:42.655200,1.00272482,.0001735,2.2016,13.2267,98.8302,312.9496,0,U,43162,999,3109,0,.131E-5,0
AL YAH 3,2018-012A,2026-07-11T20:18:25.676064,1.00271020,.0003509,1.6127,82.8094,28.2325,103.2059,0,U,43174,999,3109,0,-.153E-5,0
SES-14,2018-012B,2026-07-11T20:10:32.102112,1.00271620,.0000765,0.0124,24.3453,96.2975,64.2297,0,U,43175,999,727,0,-.274E-5,0
GOES 17,2018-022A,2026-07-11T19:58:33.252384,1.00273239,.0000543,0.9976,85.3070,96.7368,317.8350,0,U,43226,999,3067,0,-.18E-5,0
HISPASAT 30W-6,2018-023A,2026-07-11T18:32:55.927392,1.00273059,.0005088,0.0399,46.0894,42.5585,89.2866,0,U,43228,999,3065,0,-.211E-5,0
SUPERBIRD-B3,2018-033A,2026-07-11T17:45:00.519840,1.00270618,.0000978,0.0155,353.3699,128.1783,236.3602,0,U,43271,999,3030,0,-.88E-6,0
IRNSS-1I,2018-035A,2026-07-06T20:05:50.528832,1.00279237,.00180874,28.7973,73.8917,180.4002,27.0525,0,U,43286,999,3027,0,.79E-6,0
USA 283,2018-036A,2026-07-09T10:52:04.238976,1.00270107,.0000871,0.0041,71.7274,148.0481,4.7270,0,U,43339,999,2551,0,-.304E-5,0
COSMOS 2526,2018-037A,2026-07-11T16:33:50.205888,1.00273987,.0000377,0.0311,84.8582,177.6499,43.6136,0,U,43432,999,3020,0,-.339E-5,0
APSTAR-6C,2018-041A,2026-07-11T21:02:18.658176,1.00270018,.0000577,0.0234,351.2389,293.2146,94.9099,0,U,43450,999,3005,0,-.314E-5,0
BANGABANDHUSAT-1,2018-044A,2026-07-11T19:15:22.392000,1.00271833,.0001651,0.0141,91.6765,31.6350,214.3307,0,U,43463,999,2995,0,-.358E-5,0
SES-12,2018-049A,2026-07-11T19:08:30.549120,1.00269528,.0000945,0.0111,6.8449,244.5299,60.4483,0,U,43488,999,2966,0,-.265E-5,0
BEIDOU-2 IGSO-7,2018-057A,2026-07-01T21:23:21.693984,1.00246939,.01049468,55.1981,162.9292,237.8611,308.6338,0,U,43539,999,2927,0,-.33E-6,0
TELKOM 4 (MERAH PUTIH),2018-064A,2026-07-11T20:54:34.399008,1.00270559,.0000992,0.0145,75.2251,40.3587,235.8341,0,U,43587,999,2912,0,-.34E-5,0
TELSTAR 18V,2018-069A,2026-07-11T21:03:26.051040,1.00270282,.00016,0.0145,341.1932,131.4065,271.0337,0,U,43611,999,2888,0,-.29E-5,0
AZERSPACE 2 (IS-38),2018-074A,2026-07-11T05:13:02.871840,1.00270656,.0001235,0.0273,38.7820,92.2329,281.4917,0,U,43632,999,2868,0,0,0
HORIZONS-3E,2018-074B,2026-07-11T17:47:00.328992,1.00271927,.0000857,0.0414,220.4493,61.4867,83.4617,0,U,43633,999,2858,0,-.26E-6,0
BEIDOU-3 G1,2018-085A,2026-07-11T17:44:23.080992,1.00272743,.000809,2.9269,96.7211,355.5910,263.3755,0,U,43683,999,2830,0,-.107E-5,0
